EUTELSAT QUANTUM        
1 49056U 21069B   25340.89358554  .00000132  00000+0  00000+0 0  9997
2 49056   0.0281  44.9429 0003720 223.4477 176.9261  1.00270716 16003
EUTELSAT KONNECT VHTS   
1 53765U 22110A   25340.91572559  .00000023  00000+0  00000+0 0  9992
2 53765   0.0630 106.1130 0002728 130.1187 172.0757  1.00269870  4892
EUTELSAT HOTBIRD 13F    
1 54048U 22134A   25340.91017066  .00000093  00000+0  00000+0 0  9997
2 54048   0.0467 293.5462 0002177  59.1956  63.8704  1.00273163 11444
EUTELSAT HOTBIRD 13G    
1 54225U 22146A   25339.64465616  .00000097  00000+0  00000+0 0  9997
2 54225   0.0461 235.0424 0001925 313.1322 131.5912  1.00270321  5523
EUTELSAT 10B            
1 54259U 22157A   25340.91017066  .00000073  00000+0  00000+0 0  9994
2 54259   0.0633 101.1933 0001064  82.8619 229.5334  1.00267719 11094
EUTELSAT 36D            
1 59346U 24059A   25340.89747161  .00000161  00000+0  00000+0 0  9990
2 59346   0.0095 353.5839 0000447 303.7384 137.5713  1.00269990  6214
